{"type": "FeatureCollection", "features": [ {"type": "Feature", "properties": {"norad_id": 42741, "name": "EUTELSAT 172B", "group": "eutelsat", "lat": 0.021987472256577167, "lon": 105.60566561809897, "alt_km": 35785.835509514945, "timestamp": "2025-12-16T13:52:37.201083+00:00", "meta": {"OBJECT_NAME": "EUTELSAT 172B", "OBJECT_ID": "2017-029B", "EPOCH": "2025-12-15T21:03:14.673024", "MEAN_MOTION": 1.00273363, "ECCENTRICITY": 1.014e-05, "INCLINATION": 0.046, "RA_OF_ASC_NODE": 150.6556, "ARG_OF_PERICENTER": 192.3692, "MEAN_ANOMALY": 229.5527, "EPHEMERIS_TYPE": 0, "CLASSIFICATION_TYPE": "U", "NORAD_CAT_ID": 42741, "ELEMENT_SET_NO": 999, "REV_AT_EPOCH": 3189, "BSTAR": 0, "MEAN_MOTION_DOT": 1.7e-07, "MEAN_MOTION_DDOT": 0}, "tle": {"line1": "1 42741U 17029B   25349.87725316  .00000017  00000+0  00000+0 0  9995", "line2": "2 42741   0.0460 150.6556 0000101 192.3692 229.5527  1.00273363 31890"}}, "geometry": {"type": "Point", "coordinates": [105.60566561809897, 0.021987472256577167]}}, {"type": "Feature", "properties": {"norad_id": 44334, "name": "EUTELSAT 7C", "group": "eutelsat", "lat": 0.04758518942418123, "lon": -59.37515240800803, "alt_km": 35778.14735730358, "timestamp": "2025-12-16T13:52:37.201095+00:00", "meta": {"OBJECT_NAME": "EUTELSAT 7C", "OBJECT_ID": "2019-034B", "EPOCH": "2025-12-15T21:58:54.342336", "MEAN_MOTION": 1.002713, "ECCENTRICITY": 0.00030896, "INCLINATION": 0.0727, "RA_OF_ASC_NODE": 177.6823, "ARG_OF_PERICENTER": 70.5901, "MEAN_ANOMALY": 173.2556, "EPHEMERIS_TYPE": 0, "CLASSIFICATION_TYPE": "U", "NORAD_CAT_ID": 44334, "ELEMENT_SET_NO": 999, "REV_AT_EPOCH": 499, "BSTAR": 0, "MEAN_MOTION_DOT": 7.1e-07, "MEAN_MOTION_DDOT": 0}, "tle": {"line1": "1 44334U 19034B   25349.91590674  .00000071  00000+0  00000+0 0  9995", "line2": "2 44334   0.0727 177.6823 0003089  70.5901 173.2556  1.00271300  4997"}}, "geometry": {"type": "Point", "coordinates": [-59.37515240800803, 0.04758518942418123]}}, {"type": "Feature", "properties": {"norad_id": 44624, "name": "EUTELSAT 5 WEST B", "group": "eutelsat", "lat": -0.06733303087173934, "lon": -71.36889818714651, "alt_km": 35773.40277253852, "timestamp": "2025-12-16T13:52:37.201106+00:00", "meta": {"OBJECT_NAME": "EUTELSAT 5 WEST B", "OBJECT_ID": "2019-067A", "EPOCH": "2025-12-15T01:22:44.632992", "MEAN_MOTION": 1.00272503, "ECCENTRICITY": 0.00032173, "INCLINATION": 0.0649, "RA_OF_ASC_NODE": 338.3897, "ARG_OF_PERICENTER": 286.2375, "MEAN_ANOMALY": 195.0282, "EPHEMERIS_TYPE": 0, "CLASSIFICATION_TYPE": "U", "NORAD_CAT_ID": 44624, "ELEMENT_SET_NO": 999, "REV_AT_EPOCH": 2259, "BSTAR": 0, "MEAN_MOTION_DOT": -2.2e-07, "MEAN_MOTION_DDOT": 0}, "tle": {"line1": "1 44624U 19067A   25349.05746103 -.00000022  00000+0  00000+0 0  9995", "line2": "2 44624   0.0649 338.3897 0003217 286.2375 195.0282  1.00272503 22593"}}, "geometry": {"type": "Point", "coordinates": [-71.36889818714651, -0.06733303087173934]}}, {"type": "Feature", "properties": {"norad_id": 45027, "name": "EUTELSAT KONNECT", "group": "eutelsat", "lat": -0.045695099639922236, "lon": -59.19021203143733, "alt_km": 35780.85573091992, "timestamp": "2025-12-16T13:52:37.201118+00:00", "meta": {"OBJECT_NAME": "EUTELSAT KONNECT", "OBJECT_ID": "2020-005B", "EPOCH": "2025-12-15T21:00:38.918016", "MEAN_MOTION": 1.00270513, "ECCENTRICITY": 0.00013543, "INCLINATION": 0.0713, "RA_OF_ASC_NODE": 96.4477, "ARG_OF_PERICENTER": 189.8624, "MEAN_ANOMALY": 120.8248, "EPHEMERIS_TYPE": 0, "CLASSIFICATION_TYPE": "U", "NORAD_CAT_ID": 45027, "ELEMENT_SET_NO": 999, "REV_AT_EPOCH": 2249, "BSTAR": 0, "MEAN_MOTION_DOT": 7.2e-07, "MEAN_MOTION_DDOT": 0}, "tle": {"line1": "1 45027U 20005B   25349.87545044  .00000072  00000+0  00000+0 0  9992", "line2": "2 45027   0.0713  96.4477 0001354 189.8624 120.8248  1.00270513 22490"}}, "geometry": {"type": "Point", "coordinates": [-59.19021203143733, -0.045695099639922236]}}, {"type": "Feature", "properties": {"norad_id": 49056, "name": "EUTELSAT QUANTUM", "group": "eutelsat", "lat": -0.0061490152474340315, "lon": -18.63412702078363, "alt_km": 35778.9320765649, "timestamp": "2025-12-16T13:52:37.201129+00:00", "meta": {"OBJECT_NAME": "EUTELSAT QUANTUM", "OBJECT_ID": "2021-069B", "EPOCH": "2025-12-15T22:10:30.730656", "MEAN_MOTION": 1.0027326, "ECCENTRICITY": 0.00035735, "INCLINATION": 0.0113, "RA_OF_ASC_NODE": 1.7174, "ARG_OF_PERICENTER": 275.9192, "MEAN_ANOMALY": 187.5285, "EPHEMERIS_TYPE": 0, "CLASSIFICATION_TYPE": "U", "NORAD_CAT_ID": 49056, "ELEMENT_SET_NO": 999, "REV_AT_EPOCH": 1609, "BSTAR": 0, "MEAN_MOTION_DOT": 1.48e-06, "MEAN_MOTION_DDOT": 0}, "tle": {"line1": "1 49056U 21069B   25349.92396679  .00000148  00000+0  00000+0 0  9997", "line2": "2 49056   0.0113   1.7174 0003573 275.9192 187.5285  1.00273260 16097"}}, "geometry": {"type": "Point", "coordinates": [-18.63412702078363, -0.0061490152474340315]}}, {"type": "Feature", "properties": {"norad_id": 53765, "name": "EUTELSAT KONNECT VHTS", "group": "eutelsat", "lat": -0.035438979844351445, "lon": -63.622170988447394, "alt_km": 35781.16314802551, "timestamp": "2025-12-16T13:52:37.201141+00:00", "meta": {"OBJECT_NAME": "EUTELSAT KONNECT VHTS", "OBJECT_ID": "2022-110A", "EPOCH": "2025-12-15T06:33:09.991584", "MEAN_MOTION": 1.0027256, "ECCENTRICITY": 0.00026657, "INCLINATION": 0.0637, "RA_OF_ASC_NODE": 102.1934, "ARG_OF_PERICENTER": 128.1702, "MEAN_ANOMALY": 314.8436, "EPHEMERIS_TYPE": 0, "CLASSIFICATION_TYPE": "U", "NORAD_CAT_ID": 53765, "ELEMENT_SET_NO": 999, "REV_AT_EPOCH": 498, "BSTAR": 0, "MEAN_MOTION_DOT": 3.9e-07, "MEAN_MOTION_DDOT": 0}, "tle": {"line1": "1 53765U 22110A   25349.27303231  .00000039  00000+0  00000+0 0  9996", "line2": "2 53765   0.0637 102.1934 0002665 128.1702 314.8436  1.00272560  4987"}}, "geometry": {"type": "Point", "coordinates": [-63.622170988447394, -0.035438979844351445]}}, {"type": "Feature", "properties": {"norad_id": 54048, "name": "EUTELSAT HOTBIRD 13F", "group": "eutelsat", "lat": 0.001125437233877818, "lon": -53.41903567757671, "alt_km": 35780.475671330045, "timestamp": "2025-12-16T13:52:37.201152+00:00", "meta": {"OBJECT_NAME": "EUTELSAT HOTBIRD 13F", "OBJECT_ID": "2022-134A", "EPOCH": "2025-12-14T22:02:26.653056", "MEAN_MOTION": 1.0027139, "ECCENTRICITY": 0.00023413, "INCLINATION": 0.0492, "RA_OF_ASC_NODE": 293.4772, "ARG_OF_PERICENTER": 68.5165, "MEAN_ANOMALY": 65.4415, "EPHEMERIS_TYPE": 0, "CLASSIFICATION_TYPE": "U", "NORAD_CAT_ID": 54048, "ELEMENT_SET_NO": 999, "REV_AT_EPOCH": 1152, "BSTAR": 0, "MEAN_MOTION_DOT": 1.07e-06, "MEAN_MOTION_DDOT": 0}, "tle": {"line1": "1 54048U 22134A   25348.91836404  .00000107  00000+0  00000+0 0  9996", "line2": "2 54048   0.0492 293.4772 0002341  68.5165  65.4415  1.00271390 11520"}}, "geometry": {"type": "Point", "coordinates": [-53.41903567757671, 0.001125437233877818]}}, {"type": "Feature", "properties": {"norad_id": 54225, "name": "EUTELSAT HOTBIRD 13G", "group": "eutelsat", "lat": 0.026500847585385078, "lon": -53.3807444165459, "alt_km": 35790.82994260458, "timestamp": "2025-12-16T13:52:37.201164+00:00", "meta": {"OBJECT_NAME": "EUTELSAT HOTBIRD 13G", "OBJECT_ID": "2022-146A", "EPOCH": "2025-12-15T18:35:09.269376", "MEAN_MOTION": 1.00272541, "ECCENTRICITY": 0.0001793, "INCLINATION": 0.0499, "RA_OF_ASC_NODE": 235.66, "ARG_OF_PERICENTER": 298.8114, "MEAN_ANOMALY": 201.9832, "EPHEMERIS_TYPE": 0, "CLASSIFICATION_TYPE": "U", "NORAD_CAT_ID": 54225, "ELEMENT_SET_NO": 999, "REV_AT_EPOCH": 562, "BSTAR": 0, "MEAN_MOTION_DOT": 1.1e-06, "MEAN_MOTION_DDOT": 0}, "tle": {"line1": "1 54225U 22146A   25349.77441284  .00000110  00000+0  00000+0 0  9993", "line2": "2 54225   0.0499 235.6600 0001793 298.8114 201.9832  1.00272541  5627"}}, "geometry": {"type": "Point", "coordinates": [-53.3807444165459, 0.026500847585385078]}}, {"type": "Feature", "properties": {"norad_id": 54259, "name": "EUTELSAT 10B", "group": "eutelsat", "lat": -0.039339281924695164, "lon": -56.37777470375518, "alt_km": 35787.33955997931, "timestamp": "2025-12-16T13:52:37.201175+00:00", "meta": {"OBJECT_NAME": "EUTELSAT 10B", "OBJECT_ID": "2022-157A", "EPOCH": "2025-12-15T21:59:46.757760", "MEAN_MOTION": 1.00281353, "ECCENTRICITY": 0.00010885, "INCLINATION": 0.06, "RA_OF_ASC_NODE": 100.1867, "ARG_OF_PERICENTER": 52.6938, "MEAN_ANOMALY": 271.8619, "EPHEMERIS_TYPE": 0, "CLASSIFICATION_TYPE": "U", "NORAD_CAT_ID": 54259, "ELEMENT_SET_NO": 999, "REV_AT_EPOCH": 1118, "BSTAR": 0, "MEAN_MOTION_DOT": 9.2e-07, "MEAN_MOTION_DDOT": 0}, "tle": {"line1": "1 54259U 22157A   25349.91651340  .00000092  00000+0  00000+0 0  9993", "line2": "2 54259   0.0600 100.1867 0001088  52.6938 271.8619  1.00281353 11184"}}, "geometry": {"type": "Point", "coordinates": [-56.37777470375518, -0.039339281924695164]}}, {"type": "Feature", "properties": {"norad_id": 59346, "name": "EUTELSAT 36D", "group": "eutelsat", "lat": -0.016423720856702677, "lon": -30.56404956505139, "alt_km": 35785.33746914606, "timestamp": "2025-12-16T13:52:37.201186+00:00", "meta": {"OBJECT_NAME": "EUTELSAT 36D", "OBJECT_ID": "2024-059A", "EPOCH": "2025-12-15T22:07:08.552928", "MEAN_MOTION": 1.00270764, "ECCENTRICITY": 3.254e-05, "INCLINATION": 0.0232, "RA_OF_ASC_NODE": 356.4092, "ARG_OF_PERICENTER": 18.9682, "MEAN_ANOMALY": 77.0586, "EPHEMERIS_TYPE": 0, "CLASSIFICATION_TYPE": "U", "NORAD_CAT_ID": 59346, "ELEMENT_SET_NO": 999, "REV_AT_EPOCH": 631, "BSTAR": 0, "MEAN_MOTION_DOT": 0, "MEAN_MOTION_DDOT": 0}, "tle": {"line1": "1 59346U 24059A   25349.92162677  .00000000  00000+0  00000+0 0  9998", "line2": "2 59346   0.0232 356.4092 0000325  18.9682  77.0586  1.00270764  6319"}}, "geometry": {"type": "Point", "coordinates": [-30.56404956505139, -0.016423720856702677]}}]}